NORAD_CAT_ID,OBJECT_NAME,OBJECT_TYPE,EPOCH,MEAN_MOTION,ECCENTRICITY,INCLINATION,RA_OF_ASC_NODE,ARG_OF_PERICENTER,MEAN_ANOMALY,BSTAR,MEAN_MOTION_DOT,MEAN_MOTION_DDOT,TLE_LINE0,TLE_LINE1,TLE_LINE2,SEMIMAJOR_AXIS,PERIOD,APOGEE,PERIGEE,DECAYED
52294.0,STARLINK-3777,PAYLOAD,2023-11-18 21:37:17,15.0883996,0.0001861,53.2171,278.0577,93.7766,266.3439,8.7682e-05,1.108e-05,0.0,0 STARLINK-3777,1 52294U 22041AK  23322.90090058  .00001108  00000-0  87682-4 0  9999,2 52294  53.2171 278.0577 0001861  93.7766 266.3439 15.08839960 87426,6917.881,95.438,541.033,538.458,0.0
52294.0,STARLINK-3777,PAYLOAD,2023-11-19 02:23:27,15.08840817,0.0001843,53.2175,277.1658,93.9393,266.1809,8.5002e-05,1.065e-05,0.0,0 STARLINK-3777,1 52294U 22041AK  23323.09961988  .00001065  00000-0  85002-4 0  9995,2 52294  53.2175 277.1658 0001843  93.9393 266.1809 15.08840817 88678,6917.878,95.438,541.018,538.468,0.0
52294.0,STARLINK-3777,PAYLOAD,2023-11-19 13:31:09,15.08842325,0.0001831,53.2175,275.0852,93.1581,266.962,9.7262e-05,1.26e-05,0.0,0 STARLINK-3777,1 52294U 22041AK  23323.56329944  .00001260  00000-0  97262-4 0  9995,2 52294  53.2175 275.0852 0001831  93.1581 266.9620 15.08842325 87527,6917.873,95.437,541.005,538.472,0.0
52294.0,STARLINK-3777,PAYLOAD,2023-11-19 21:28:04,15.08844183,0.0001805,53.2172,273.5983,94.6641,265.4557,9.533e-05,1.23e-05,0.0,0 STARLINK-3777,1 52294U 22041AK  23323.89449714  .00001230  00000-0  95330-4 0  9990,2 52294  53.2172 273.5983 0001805  94.6641 265.4557 15.08844183 87578,6917.868,95.437,540.981,538.484,0.0
52294.0,STARLINK-3777,PAYLOAD,2023-11-20 03:49:36,15.08848203,0.0001726,53.2183,272.4098,96.1192,263.9997,0.00012717,1.737e-05,0.0,0 STARLINK-3777,1 52294U 22041AK  23324.15945381  .00001737  00000-0  12717-3 0  9990,2 52294  53.2183 272.4098 0001726  96.1192 263.9997 15.08848203 88833,6917.855,95.437,540.914,538.526,0.0
52294.0,STARLINK-3777,PAYLOAD,2023-11-20 13:21:55,15.08844817,0.0001724,53.2176,270.6233,95.8715,264.2473,0.00012356,1.679e-05,0.0,0 STARLINK-3777,1 52294U 22041AK  23324.55689496  .00001679  00000-0  12356-3 0  9990,2 52294  53.2176 270.6233 0001724  95.8715 264.2473 15.08844817 87672,6917.866,95.437,540.923,538.538,0.0
52294.0,STARLINK-3777,PAYLOAD,2023-11-21 03:40:24,15.08840001,0.0001704,53.2181,267.9508,95.0669,265.0517,7.6828e-05,9.35e-06,0.0,0 STARLINK-3777,1 52294U 22041AK  23325.15306035  .00000935  00000-0  76828-4 0  9991,2 52294  53.2181 267.9508 0001704  95.0669 265.0517 15.08840001 88984,6917.88,95.438,540.924,538.567,0.0
52294.0,STARLINK-3777,PAYLOAD,2023-11-21 05:15:47,15.08842958,0.0001761,53.2185,267.6532,93.1179,267.0015,0.00010608,1.401e-05,0.0,0 STARLINK-3777,1 52294U 22041AK  23325.21929900  .00001401  00000-0  10608-3 0  9992,2 52294  53.2185 267.6532 0001761  93.1179 267.0015 15.08842958 87774,6917.871,95.437,540.955,538.518,0.0
52294.0,STARLINK-3777,PAYLOAD,2023-11-22 05:06:34,15.08846078,0.0001747,53.2178,263.1901,90.6525,269.4667,0.0001224,1.661e-05,0.0,0 STARLINK-3777,1 52294U 22041AK  23326.21289769  .00001661  00000-0  12240-3 0  9997,2 52294  53.2178 263.1901 0001747  90.6525 269.4667 15.08846078 89147,6917.862,95.437,540.935,538.518,0.0
52294.0,STARLINK-3777,PAYLOAD,2023-11-23 04:57:20,15.0886476,0.0001511,53.216,258.7296,90.5044,269.6121,0.00055743,8.601e-05,0.0,0 STARLINK-3777,1 52294U 22041AK  23327.20648870  .00008601  00000-0  55743-3 0  9995,2 52294  53.2160 258.7296 0001511  90.5044 269.6121 15.08864760 89290,6917.805,95.436,540.715,538.624,0.0
52294.0,STARLINK-3777,PAYLOAD,2023-11-23 19:15:50,15.08828859,0.000122,53.2158,256.0533,105.4732,254.6395,-0.00022877,-3.926e-05,0.0,0 STARLINK-3777,1 52294U 22041AK  23327.80266219 -.00003926  00000-0 -22877-3 0  9993,2 52294  53.2158 256.0533 0001220 105.4732 254.6395 15.08828859 89385,6917.914,95.438,540.623,538.935,0.0
52294.0,STARLINK-3777,PAYLOAD,2023-11-24 01:37:22,15.08831597,0.0001507,53.2159,254.8635,105.8238,254.2921,-0.00011788,-2.163e-05,0.0,0 STARLINK-3777,1 52294U 22041AK  23328.06762403 -.00002163  00000-0 -11788-3 0  9999,2 52294  53.2159 254.8635 0001507 105.8238 254.2921 15.08831597 88202,6917.906,95.438,540.814,538.729,0.0
52294.0,STARLINK-3777,PAYLOAD,2023-11-24 22:17:23,15.08842501,0.0001503,53.2162,250.9977,100.6549,259.4613,1.0191e-05,-1.26e-06,0.0,0 STARLINK-3777,1 52294U 22041AK  23328.92874521 -.00000126  00000-0  10191-4 0  9993,2 52294  53.2162 250.9977 0001503 100.6549 259.4613 15.08842501 88332,6917.873,95.437,540.778,538.698,0.0
52294.0,STARLINK-3777,PAYLOAD,2023-11-25 01:28:09,15.0884491,0.0001629,53.2165,250.4029,91.3358,268.782,0.00022271,3.259e-05,0.0,0 STARLINK-3777,1 52294U 22041AK  23329.06122594  .00003259  00000-0  22271-3 0  9995,2 52294  53.2165 250.4029 0001629  91.3358 268.7820 15.08844910 89577,6917.865,95.437,540.857,538.603,0.0
52294.0,STARLINK-3777,PAYLOAD,2023-11-25 04:38:55,15.0885387,0.0001645,53.2166,249.8064,104.5484,255.569,0.00043223,6.6e-05,0.0,0 STARLINK-3777,1 52294U 22041AK  23329.19370250  .00006600  00000-0  43223-3 0  9996,2 52294  53.2166 249.8064 0001645 104.5484 255.5690 15.08853870 88375,6917.838,95.437,540.841,538.565,0.0
52294.0,STARLINK-3777,PAYLOAD,2023-11-25 22:08:10,15.08866542,0.0001888,53.2161,246.538,112.7224,247.3967,0.00076786,0.00011962,0.0,0 STARLINK-3777,1 52294U 22041AK  23329.92233938  .00011962  00000-0  76786-3 0  9995,2 52294  53.2161 246.5380 0001888 112.7224 247.3967 15.08866542 88485,6917.799,95.436,540.97,538.358,0.0
52294.0,STARLINK-3777,PAYLOAD,2023-11-25 23:43:33,15.08873494,0.0001532,53.2159,246.2426,79.6222,280.4943,0.0010638,0.00016698,0.0,0 STARLINK-3777,1 52294U 22041AK  23329.98857975  .00016698  00000-0  10638-2 0  9998,2 52294  53.2159 246.2426 0001532  79.6222 280.4943 15.08873494 89718,6917.778,95.435,540.703,538.583,0.0
52294.0,STARLINK-3777,PAYLOAD,2023-11-26 18:48:11,15.08829363,0.0001521,53.2165,242.67,137.7513,222.3597,-3.6656e-05,-8.71e-06,0.0,0 STARLINK-3777,1 52294U 22041AK  23330.78346555 -.00000871  00000-0 -36656-4 0  9993,2 52294  53.2165 242.6700 0001521 137.7513 222.3597 15.08829363 89836,6917.913,95.438,540.83,538.726,0.0
52294.0,STARLINK-3777,PAYLOAD,2023-11-26 21:58:57,15.08788269,0.0002517,53.2172,242.0705,138.1323,221.9862,-0.0017962,-0.00028722,0.0,0 STARLINK-3777,1 52294U 22041AK  23330.91594780 -.00028722  00000-0 -17962-2 0  9995,2 52294  53.2172 242.0705 0002517 138.1323 221.9862 15.08788269 88639,6918.039,95.441,541.645,538.162,0.0
52294.0,STARLINK-3777,PAYLOAD,2023-11-27 01:09:46,15.08753746,0.0001896,53.2177,241.4783,124.0214,236.0958,-0.0018708,-0.00029869,0.0,0 STARLINK-3777,1 52294U 22041AK  23331.04845491 -.00029869  00000-0 -18708-2 0  9990,2 52294  53.2177 241.4783 0001896 124.0214 236.0958 15.08753746 89877,6918.144,95.443,541.321,538.697,0.0
52294.0,STARLINK-3777,PAYLOAD,2023-11-27 18:39:00,15.08825114,0.0001407,53.2163,238.2151,77.7376,282.3774,0.00015347,2.154e-05,0.0,0 STARLINK-3777,1 52294U 22041AK  23331.77708699  .00002154  00000-0  15347-3 0  9991,2 52294  53.2163 238.2151 0001407  77.7376 282.3774 15.08825114 89987,6917.926,95.438,540.764,538.818,0.0
52294.0,STARLINK-3777,PAYLOAD,2023-11-27 21:49:45,15.0885443,0.0001464,53.2165,237.6162,105.4218,254.6936,0.00093367,0.00014608,0.0,0 STARLINK-3777,1 52294U 22041AK  23331.90955994  .00014608  00000-0  93367-3 0  9993,2 52294  53.2165 237.6162 0001464 105.4218 254.6936 15.08854430 88783,6917.836,95.437,540.714,538.689,0.0
52294.0,STARLINK-3777,PAYLOAD,2023-11-28 02:35:54,15.0886634,0.0001548,53.2166,236.7231,106.2104,253.9058,0.00082408,0.00012861,0.0,0 STARLINK-3777,1 52294U 22041AK  23332.10827179  .00012861  00000-0  82408-3 0  9992,2 52294  53.2166 236.7231 0001548 106.2104 253.9058 15.08866340 90038,6917.8,95.436,540.736,538.594,0.0
52294.0,STARLINK-3777,PAYLOAD,2023-11-28 21:40:33,15.08846046,0.0001516,53.2161,233.1565,123.6441,236.4696,0.00059298,9.163e-05,0.0,0 STARLINK-3777,1 52294U 22041AK  23332.90316027  .00009163  00000-0  59298-3 0  9997,2 52294  53.2161 233.1565 0001516 123.6441 236.4696 15.08846046 88937,6917.862,95.437,540.776,538.678,0.0
52294.0,STARLINK-3777,PAYLOAD,2023-11-29 02:26:41,15.08850412,0.00015,53.2159,232.2643,127.851,232.2618,0.00052178,8.028e-05,0.0,0 STARLINK-3777,1 52294U 22041AK  23333.10187444  .00008028  00000-0  52178-3 0  9998,2 52294  53.2159 232.2643 0001500 127.8510 232.2618 15.08850412 90187,6917.849,95.437,540.751,538.676,0.0
52294.0,STARLINK-3777,PAYLOAD,2023-11-30 02:17:28,15.08854043,0.0001463,53.2161,227.8018,95.9485,264.1674,0.00019197,2.77e-05,0.0,0 STARLINK-3777,1 52294U 22041AK  23334.09546560  .00002770  00000-0  19197-3 0  9997,2 52294  53.2161 227.8018 0001463  95.9485 264.1674 15.08854043 90337,6917.837,95.437,540.715,538.69,0.0
52294.0,STARLINK-3777,PAYLOAD,2023-12-01 00:32:53,15.08839377,0.0001717,53.2166,223.644,77.1933,282.9251,0.0001734,2.473e-05,0.0,0 STARLINK-3777,1 52294U 22041AK  23335.02283642  .00002473  00000-0  17340-3 0  9998,2 52294  53.2166 223.6440 0001717  77.1933 282.9251 15.08839377 90474,6917.882,95.438,540.935,538.559,0.0
52294.0,STARLINK-3777,PAYLOAD,2023-12-01 22:48:16,15.08873814,0.0001722,53.2156,219.4814,127.9183,232.1965,0.00095867,0.00015016,0.0,0 STARLINK-3777,1 52294U 22041AK  23335.95018544  .00015016  00000-0  95867-3 0  9994,2 52294  53.2156 219.4814 0001722 127.9183 232.1965 15.08873814 89390,6917.777,95.435,540.833,538.451,0.0
52294.0,STARLINK-3777,PAYLOAD,2023-12-02 19:28:17,15.08851067,0.0001477,53.2163,215.6159,77.0844,283.0313,0.00023046,3.383e-05,0.0,0 STARLINK-3777,1 52294U 22041AK  23336.81131031  .00003383  00000-0  23046-3 0  9991,2 52294  53.2163 215.6159 0001477  77.0844 283.0313 15.08851067 90743,6917.847,95.437,540.733,538.69,0.0
52294.0,STARLINK-3777,PAYLOAD,2023-12-02 22:39:03,15.08846273,0.0001471,53.2163,215.0107,111.8416,248.2733,5.7611e-05,6.29e-06,0.0,0 STARLINK-3777,1 52294U 22041AK  23336.94378717  .00000629  00000-0  57611-4 0  9995,2 52294  53.2163 215.0107 0001471 111.8416 248.2733 15.08846273 89544,6917.861,95.437,540.744,538.709,0.0
